{
  "type": "FeatureCollection",
  "features": [
    {
      "type": "Feature",
      "properties": {
        "norad_id": 33822,
        "name": "COSMOS 2251 DEB",
        "group": "cosmos-2251-debris",
        "lat": 14.396230438206215,
        "lon": -147.84742760361956,
        "alt_km": 902.2309687654315,
        "timestamp": "2025-12-04T15:47:54.491739+00:00",
        "meta_object_name": "COSMOS 2251 DEB",
        "meta_object_id": "1993-036BP",
        "meta_epoch": "2025-12-04T01:02:24.821376",
        "meta_mean_motion": 14.13003523,
        "meta_eccentricity": 0.01540464,
        "meta_inclination": 74.07,
        "meta_ra_of_asc_node": 209.0334,
        "meta_arg_of_pericenter": 257.3582,
        "meta_mean_anomaly": 229.3917,
        "meta_ephemeris_type": 0,
        "meta_classification_type": "U",
        "meta_norad_cat_id": 33822,
        "meta_element_set_no": 999,
        "meta_rev_at_epoch": 85931,
        "meta_bstar": 0.0024511864,
        "meta_mean_motion_dot": 5.094e-05,
        "meta_mean_motion_ddot": 0,
        "tle_line1": "1 33822U 93036BP  25338.04334284  .00005094  00000+0  24512-2 0  9991",
        "tle_line2": "2 33822  74.0700 209.0334 0154046 257.3582 229.3917 14.13003523859312"
      },
      "geometry": {
        "type": "Point",
        "coordinates": [
          -147.84742760361956,
          14.396230438206215
        ]
      }
    },
    {
      "type": "Feature",
      "properties": {
        "norad_id": 33823,
        "name": "COSMOS 2251 DEB",
        "group": "cosmos-2251-debris",
        "lat": -59.416788345008,
        "lon": 12.940029236869321,
        "alt_km": 797.4645062967384,
        "timestamp": "2025-12-04T15:47:54.491749+00:00",
        "meta_object_name": "COSMOS 2251 DEB",
        "meta_object_id": "1993-036BQ",
        "meta_epoch": "2025-12-04T06:55:31.538208",
        "meta_mean_motion": 13.98918804,
        "meta_eccentricity": 0.0209253,
        "meta_inclination": 73.8087,
        "meta_ra_of_asc_node": 164.1412,
        "meta_arg_of_pericenter": 290.6625,
        "meta_mean_anomaly": 253.5086,
        "meta_ephemeris_type": 0,
        "meta_classification_type": "U",
        "meta_norad_cat_id": 33823,
        "meta_element_set_no": 999,
        "meta_rev_at_epoch": 85491,
        "meta_bstar": 0.0012367329,
        "meta_mean_motion_dot": 2.126e-05,
        "meta_mean_motion_ddot": 0,
        "tle_line1": "1 33823U 93036BQ  25338.28855947  .00002126  00000+0  12367-2 0  9990",
        "tle_line2": "2 33823  73.8087 164.1412 0209253 290.6625 253.5086 13.98918804854911"
      },
      "geometry": {
        "type": "Point",
        "coordinates": [
          12.940029236869321,
          -59.416788345008
        ]
      }
    },
    {
      "type": "Feature",
      "properties": {
        "norad_id": 33825,
        "name": "COSMOS 2251 DEB",
        "group": "cosmos-2251-debris",
        "lat": 0.3875933488684206,
        "lon": 43.61620042688182,
        "alt_km": 606.8110826044285,
        "timestamp": "2025-12-04T15:47:54.491760+00:00",
        "meta_object_name": "COSMOS 2251 DEB",
        "meta_object_id": "1993-036BS",
        "meta_epoch": "2025-12-04T07:56:28.501152",
        "meta_mean_motion": 14.69648212,
        "meta_eccentricity": 0.0084134,
        "meta_inclination": 73.9863,
        "meta_ra_of_asc_node": 44.141,
        "meta_arg_of_pericenter": 13.2984,
        "meta_mean_anomaly": 56.0313,
        "meta_ephemeris_type": 0,
        "meta_classification_type": "U",
        "meta_norad_cat_id": 33825,
        "meta_element_set_no": 999,
        "meta_rev_at_epoch": 88756,
        "meta_bstar": 0.0019400241,
        "meta_mean_motion_dot": 0.00012176,
        "meta_mean_motion_ddot": 0,
        "tle_line1": "1 33825U 93036BS  25338.33088543  .00012176  00000+0  19400-2 0  9999",
        "tle_line2": "2 33825  73.9863  44.1410 0084134  13.2984  56.0313 14.69648212887565"
      },
      "geometry": {
        "type": "Point",
        "coordinates": [
          43.61620042688182,
          0.3875933488684206
        ]
      }
    },
    {
      "type": "Feature",
      "properties": {
        "norad_id": 33826,
        "name": "COSMOS 2251 DEB",
        "group": "cosmos-2251-debris",
        "lat": 51.31990099017913,
        "lon": 85.97599188825768,
        "alt_km": 682.978531799663,
        "timestamp": "2025-12-04T15:47:54.491771+00:00",
        "meta_object_name": "COSMOS 2251 DEB",
        "meta_object_id": "1993-036BT",
        "meta_epoch": "2025-12-04T07:32:21.166368",
        "meta_mean_motion": 14.51590912,
        "meta_eccentricity": 0.008416,
        "meta_inclination": 74.0655,
        "meta_ra_of_asc_node": 65.715,
        "meta_arg_of_pericenter": 112.7035,
        "meta_mean_anomaly": 304.8201,
        "meta_ephemeris_type": 0,
        "meta_classification_type": "U",
        "meta_norad_cat_id": 33826,
        "meta_element_set_no": 999,
        "meta_rev_at_epoch": 87647,
        "meta_bstar": 0.0037929062,
        "meta_mean_motion_dot": 0.00015916,
        "meta_mean_motion_ddot": 0,
        "tle_line1": "1 33826U 93036BT  25338.31413387  .00015916  00000+0  37929-2 0  9997",
        "tle_line2": "2 33826  74.0655  65.7150 0084160 112.7035 304.8201 14.51590912876470"
      },
      "geometry": {
        "type": "Point",
        "coordinates": [
          85.97599188825768,
          51.31990099017913
        ]
      }
    },
    {
      "type": "Feature",
      "properties": {
        "norad_id": 33828,
        "name": "COSMOS 2251 DEB",
        "group": "cosmos-2251-debris",
        "lat": 14.03903117821993,
        "lon": 69.01541255118417,
        "alt_km": 764.8542493229488,
        "timestamp": "2025-12-04T15:47:54.491782+00:00",
        "meta_object_name": "COSMOS 2251 DEB",
        "meta_object_id": "1993-036BV",
        "meta_epoch": "2025-12-04T05:37:27.160032",
        "meta_mean_motion": 14.44287527,
        "meta_eccentricity": 0.00293445,
        "meta_inclination": 74.0475,
        "meta_ra_of_asc_node": 253.9048,
        "meta_arg_of_pericenter": 328.1535,
        "meta_mean_anomaly": 153.9355,
        "meta_ephemeris_type": 0,
        "meta_classification_type": "U",
        "meta_norad_cat_id": 33828,
        "meta_element_set_no": 999,
        "meta_rev_at_epoch": 88190,
        "meta_bstar": 0.001175644,
        "meta_mean_motion_dot": 4.039e-05,
        "meta_mean_motion_ddot": 0,
        "tle_line1": "1 33828U 93036BV  25338.23434213  .00004039  00000+0  11756-2 0  9995",
        "tle_line2": "2 33828  74.0475 253.9048 0029344 328.1535 153.9355 14.44287527881904"
      },
      "geometry": {
        "type": "Point",
        "coordinates": [
          69.01541255118417,
          14.03903117821993
        ]
      }
    },
    {
      "type": "Feature",
      "properties": {
        "norad_id": 33830,
        "name": "COSMOS 2251 DEB",
        "group": "cosmos-2251-debris",
        "lat": 4.113358453707496,
        "lon": 65.02793658232932,
        "alt_km": 670.6722863688183,
        "timestamp": "2025-12-04T15:47:54.491793+00:00",
        "meta_object_name": "COSMOS 2251 DEB",
        "meta_object_id": "1993-036BX",
        "meta_epoch": "2025-12-04T05:47:58.578144",
        "meta_mean_motion": 14.76719026,
        "meta_eccentricity": 0.00421805,
        "meta_inclination": 74.0335,
        "meta_ra_of_asc_node": 247.0239,
        "meta_arg_of_pericenter": 8.9027,
        "meta_mean_anomaly": 112.6851,
        "meta_ephemeris_type": 0,
        "meta_classification_type": "U",
        "meta_norad_cat_id": 33830,
        "meta_element_set_no": 999,
        "meta_rev_at_epoch": 89346,
        "meta_bstar": 0.0024056886,
        "meta_mean_motion_dot": 0.00017104,
        "meta_mean_motion_ddot": 0,
        "tle_line1": "1 33830U 93036BX  25338.24165021  .00017104  00000+0  24057-2 0  9992",
        "tle_line2": "2 33830  74.0335 247.0239 0042180   8.9027 112.6851 14.76719026893466"
      },
      "geometry": {
        "type": "Point",
        "coordinates": [
          65.02793658232932,
          4.113358453707496
        ]
      }
    },
    {
      "type": "Feature",
      "properties": {
        "norad_id": 33832,
        "name": "COSMOS 2251 DEB",
        "group": "cosmos-2251-debris",
        "lat": -20.91357004615611,
        "lon": -140.88006416583195,
        "alt_km": 693.4214847296853,
        "timestamp": "2025-12-04T15:47:54.491804+00:00",
        "meta_object_name": "COSMOS 2251 DEB",
        "meta_object_id": "1993-036BZ",
        "meta_epoch": "2025-12-04T03:26:00.676032",
        "meta_mean_motion": 14.60469448,
        "meta_eccentricity": 0.00255921,
        "meta_inclination": 74.0551,
        "meta_ra_of_asc_node": 226.3743,
        "meta_arg_of_pericenter": 259.172,
        "meta_mean_anomaly": 251.1656,
        "meta_ephemeris_type": 0,
        "meta_classification_type": "U",
        "meta_norad_cat_id": 33832,
        "meta_element_set_no": 999,
        "meta_rev_at_epoch": 88299,
        "meta_bstar": 0.0029533891,
        "meta_mean_motion_dot": 0.00014386,
        "meta_mean_motion_ddot": 0,
        "tle_line1": "1 33832U 93036BZ  25338.14306338  .00014386  00000+0  29534-2 0  9995",
        "tle_line2": "2 33832  74.0551 226.3743 0025592 259.1720 251.1656 14.60469448882997"
      },
      "geometry": {
        "type": "Point",
        "coordinates": [
          -140.88006416583195,
          -20.91357004615611
        ]
      }
    }
  ]
}